IRIDIUM 136             
1 42962U 17061H   23306.40155568  .00000498  00000+0  17063-3 0  9996
2 42962  86.3970  65.5106 0001872  88.4267 271.7143 14.34214768317550
